[{"OBJECT_NAME":"GEESAT-4 11","OBJECT_ID":"2025-170L","EPOCH":"2026-03-09T21:54:41.896224","MEAN_MOTION":14.83783005,"ECCENTRICITY":0.00072132,"INCLINATION":49.9829,"RA_OF_ASC_NODE":274.1222,"ARG_OF_PERICENTER":73.5115,"MEAN_ANOMALY":286.6615,"EPHEMERIS_TYPE":0,"CLASSIFICATION_TYPE":"U","NORAD_CAT_ID":65129,"ELEMENT_SET_NO":999,"REV_AT_EPOCH":3169,"BSTAR":0.00036515131,"MEAN_MOTION_DOT":2.831e-5,"MEAN_MOTION_DDOT":0},{"OBJECT_NAME":"SL-8 DEB","OBJECT_ID":"1979-060D","EPOCH":"2026-03-09T09:25:05.204640","MEAN_MOTION":14.86930675,"ECCENTRICITY":0.00050342,"INCLINATION":73.9946,"RA_OF_ASC_NODE":163.6961,"ARG_OF_PERICENTER":325.1797,"MEAN_ANOMALY":153.745,"EPHEMERIS_TYPE":0,"CLASSIFICATION_TYPE":"U","NORAD_CAT_ID":15784,"ELEMENT_SET_NO":999,"REV_AT_EPOCH":17761,"BSTAR":0.00073619835,"MEAN_MOTION_DOT":6.554e-5,"MEAN_MOTION_DDOT":0}]
